{
  "norad_id": 64686,
  "name": "STARLINK-34565",
  "history": [
    {
      "epoch": "2026-03-28T13:45:22.033152Z",
      "apogee_km": 476.23382657594357,
      "perigee_km": 474.15589635554716,
      "latitude_deg": -1.654448476379721e-05,
      "longitude_deg": 7.100703288595412,
      "height_km": 476.03709325988734,
      "semi_major_axis_km": 6853.3318614657455,
      "eccentricity": 0.0001516,
      "inclination_deg": 53.162,
      "raan_deg": 39.4342,
      "arg_perigee_deg": 86.9254,
      "mean_anomaly_deg": 273.192,
      "mean_motion_rev_day": 15.30206768
    },
    {
      "epoch": "2026-03-29T03:51:50.588352Z",
      "apogee_km": 476.17846532044496,
      "perigee_km": 474.1937429494883,
      "latitude_deg": -3.4389137382803124e-05,
      "longitude_deg": 152.17241772898723,
      "height_km": 475.74251287257493,
      "semi_major_axis_km": 6853.323104134966,
      "eccentricity": 0.0001448,
      "inclination_deg": 53.1603,
      "raan_deg": 36.7043,
      "arg_perigee_deg": 69.8658,
      "mean_anomaly_deg": 290.2498,
      "mean_motion_rev_day": 15.30209701
    },
    {
      "epoch": "2026-03-30T04:56:41.805024Z",
      "apogee_km": 476.0503555685409,
      "perigee_km": 474.4041774717225,
      "latitude_deg": 6.732048566635357e-05,
      "longitude_deg": 130.07495567417396,
      "height_km": 475.9507277917313,
      "semi_major_axis_km": 6853.364266520131,
      "eccentricity": 0.0001201,
      "inclination_deg": 53.1604,
      "raan_deg": 31.8502,
      "arg_perigee_deg": 77.7401,
      "mean_anomaly_deg": 282.3735,
      "mean_motion_rev_day": 15.30195915
    },
    {
      "epoch": "2026-03-30T04:56:41.805888Z",
      "apogee_km": 476.0505611694689,
      "perigee_km": 474.4039718707945,
      "latitude_deg": 6.46161967955144e-05,
      "longitude_deg": 130.07495004953947,
      "height_km": 475.950684133531,
      "semi_major_axis_km": 6853.364266520131,
      "eccentricity": 0.00012013,
      "inclination_deg": 53.1604,
      "raan_deg": 31.8502,
      "arg_perigee_deg": 77.7401,
      "mean_anomaly_deg": 282.3735,
      "mean_motion_rev_day": 15.30195915
    },
    {
      "epoch": "2026-03-30T20:37:13.854432Z",
      "apogee_km": 476.18278938802996,
      "perigee_km": 474.1653116809739,
      "latitude_deg": 6.296548700046848e-06,
      "longitude_deg": -108.73580099039306,
      "height_km": 476.245241635847,
      "semi_major_axis_km": 6853.311050534501,
      "eccentricity": 0.00014719,
      "inclination_deg": 53.1595,
      "raan_deg": 28.8168,
      "arg_perigee_deg": 99.8992,
      "mean_anomaly_deg": 260.2175,
      "mean_motion_rev_day": 15.30213738
    },
    {
      "epoch": "2026-03-31T20:08:02.096160Z",
      "apogee_km": 476.02313065240196,
      "perigee_km": 474.3687360822869,
      "latitude_deg": 3.931654048814449e-06,
      "longitude_deg": -106.95306965624702,
      "height_km": 476.1210135333988,
      "semi_major_axis_km": 6853.332933367344,
      "eccentricity": 0.0001207,
      "inclination_deg": 53.1587,
      "raan_deg": 24.2662,
      "arg_perigee_deg": 91.8744,
      "mean_anomaly_deg": 268.2395,
      "mean_motion_rev_day": 15.30206409
    },
    {
      "epoch": "2026-04-01T05:32:21.101856Z",
      "apogee_km": 475.86240040179564,
      "perigee_km": 474.4999607474965,
      "latitude_deg": -3.7159532178294685e-05,
      "longitude_deg": 109.76124874177451,
      "height_km": 476.2403307393558,
      "semi_major_axis_km": 6853.318180574645,
      "eccentricity": 9.94e-05,
      "inclination_deg": 53.1602,
      "raan_deg": 22.446,
      "arg_perigee_deg": 103.6392,
      "mean_anomaly_deg": 256.4719,
      "mean_motion_rev_day": 15.3021135
    },
    {
      "epoch": "2026-04-02T05:03:08.754336Z",
      "apogee_km": 475.86877746895516,
      "perigee_km": 474.42986147331885,
      "latitude_deg": 3.625689766893871e-05,
      "longitude_deg": 111.54629821236026,
      "height_km": 476.1135120591749,
      "semi_major_axis_km": 6853.286319471137,
      "eccentricity": 0.00010498,
      "inclination_deg": 53.1606,
      "raan_deg": 17.8952,
      "arg_perigee_deg": 95.2432,
      "mean_anomaly_deg": 264.8689,
      "mean_motion_rev_day": 15.30222021
    },
    {
      "epoch": "2026-04-02T22:17:43.358784Z",
      "apogee_km": 476.0215549366776,
      "perigee_km": 474.085939741999,
      "latitude_deg": 1.3586293278425882e-05,
      "longitude_deg": -151.14314599263895,
      "height_km": 476.3437286935117,
      "semi_major_axis_km": 6853.1907473393385,
      "eccentricity": 0.00014122,
      "inclination_deg": 53.161,
      "raan_deg": 14.5581,
      "arg_perigee_deg": 113.8817,
      "mean_anomaly_deg": 246.2332,
      "mean_motion_rev_day": 15.30254031
    },
    {
      "epoch": "2026-04-03T04:33:56.068128Z",
      "apogee_km": 475.99997744281427,
      "perigee_km": 474.3274979307889,
      "latitude_deg": -2.0965284651640302e-05,
      "longitude_deg": 113.3325648588613,
      "height_km": 475.949356998457,
      "semi_major_axis_km": 6853.300737686801,
      "eccentricity": 0.00012202,
      "inclination_deg": 53.1609,
      "raan_deg": 13.3443,
      "arg_perigee_deg": 82.2583,
      "mean_anomaly_deg": 277.8556,
      "mean_motion_rev_day": 15.30217192
    },
    {
      "epoch": "2026-04-04T05:38:48.770016Z",
      "apogee_km": 476.1565327670878,
      "perigee_km": 474.2248538234562,
      "latitude_deg": 2.7875890913622088e-05,
      "longitude_deg": 91.22945712240244,
      "height_km": 476.69505588731204,
      "semi_major_axis_km": 6853.327693295272,
      "eccentricity": 0.00014093,
      "inclination_deg": 53.1611,
      "raan_deg": 8.4908,
      "arg_perigee_deg": 128.857,
      "mean_anomaly_deg": 231.2557,
      "mean_motion_rev_day": 15.30208164
    },
    {
      "epoch": "2026-04-05T03:35:32.358912Z",
      "apogee_km": 476.09043461434794,
      "perigee_km": 474.36023475933234,
      "latitude_deg": 1.6852545785392094e-05,
      "longitude_deg": 116.89836026314381,
      "height_km": 476.2882295116118,
      "semi_major_axis_km": 6853.36233468684,
      "eccentricity": 0.00012623,
      "inclination_deg": 53.1617,
      "raan_deg": 4.2426,
      "arg_perigee_deg": 100.9685,
      "mean_anomaly_deg": 259.1458,
      "mean_motion_rev_day": 15.30196562
    },
    {
      "epoch": "2026-04-05T17:42:01.632096Z",
      "apogee_km": 476.16816321375427,
      "perigee_km": 474.27663601946097,
      "latitude_deg": -6.79558429077769e-05,
      "longitude_deg": -98.03137594397838,
      "height_km": 476.01472411608927,
      "semi_major_axis_km": 6853.359399616607,
      "eccentricity": 0.000138,
      "inclination_deg": 53.1605,
      "raan_deg": 1.5143,
      "arg_perigee_deg": 83.5846,
      "mean_anomaly_deg": 276.5311,
      "mean_motion_rev_day": 15.30197545
    },
    {
      "epoch": "2026-04-06T03:06:21.172608Z",
      "apogee_km": 476.0973170825673,
      "perigee_km": 474.3965813217328,
      "latitude_deg": 7.429129728983046e-06,
      "longitude_deg": 118.67929342930006,
      "height_km": 475.97248248267067,
      "semi_major_axis_km": 6853.38394920215,
      "eccentricity": 0.00012408,
      "inclination_deg": 53.1613,
      "raan_deg": 359.6926,
      "arg_perigee_deg": 78.2786,
      "mean_anomaly_deg": 281.8354,
      "mean_motion_rev_day": 15.30189323
    },
    {
      "epoch": "2026-04-07T10:27:24.703776Z",
      "apogee_km": 475.81598589805344,
      "perigee_km": 474.5298937547459,
      "latitude_deg": 7.541575121398371e-06,
      "longitude_deg": 1.0595378412377434,
      "height_km": 476.01978842926457,
      "semi_major_axis_km": 6853.309939826399,
      "eccentricity": 9.383e-05,
      "inclination_deg": 53.1617,
      "raan_deg": 353.6251,
      "arg_perigee_deg": 85.3737,
      "mean_anomaly_deg": 274.7371,
      "mean_motion_rev_day": 15.3021411
    },
    {
      "epoch": "2026-04-07T16:43:37.864128Z",
      "apogee_km": 476.67344436667463,
      "perigee_km": 473.7086946438076,
      "latitude_deg": -1.9299786921826197e-05,
      "longitude_deg": -94.46603070934893,
      "height_km": 476.0109067114607,
      "semi_major_axis_km": 6853.328069505241,
      "eccentricity": 0.0002163,
      "inclination_deg": 53.1608,
      "raan_deg": 352.4119,
      "arg_perigee_deg": 87.0203,
      "mean_anomaly_deg": 273.1045,
      "mean_motion_rev_day": 15.30208038
    },
    {
      "epoch": "2026-04-08T00:33:53.864640Z",
      "apogee_km": 476.08221976001187,
      "perigee_km": 474.33297208534896,
      "latitude_deg": 1.559116076076896e-05,
      "longitude_deg": 146.12973942232375,
      "height_km": 476.06480271925784,
      "semi_major_axis_km": 6853.34459592268,
      "eccentricity": 0.00012762,
      "inclination_deg": 53.1611,
      "raan_deg": 350.8962,
      "arg_perigee_deg": 87.3145,
      "mean_anomaly_deg": 272.8002,
      "mean_motion_rev_day": 15.30202503
    },
    {
      "epoch": "2026-04-09T01:38:44.972448Z",
      "apogee_km": 476.07798044459287,
      "perigee_km": 474.37916818603117,
      "latitude_deg": -4.848797035290663e-05,
      "longitude_deg": 124.03210481376222,
      "height_km": 475.9013584453137,
      "semi_major_axis_km": 6853.365574315312,
      "eccentricity": 0.00012394,
      "inclination_deg": 53.1612,
      "raan_deg": 346.0416,
      "arg_perigee_deg": 74.6023,
      "mean_anomaly_deg": 285.5114,
      "mean_motion_rev_day": 15.30195477
    },
    {
      "epoch": "2026-04-10T01:09:32.299200Z",
      "apogee_km": 475.605111738545,
      "perigee_km": 474.7655797511916,
      "latitude_deg": -2.1238607794926675e-05,
      "longitude_deg": 125.81917688357392,
      "height_km": 476.47609645849167,
      "semi_major_axis_km": 6853.3223457448685,
      "eccentricity": 6.125e-05,
      "inclination_deg": 53.1607,
      "raan_deg": 341.4915,
      "arg_perigee_deg": 158.7554,
      "mean_anomaly_deg": 201.3472,
      "mean_motion_rev_day": 15.30209955
    }
  ]
}